[{"OBJECT_NAME":"CORVUS BC4","OBJECT_ID":"2018-099K","EPOCH":"2026-03-09T15:49:18.108768","MEAN_MOTION":15.1161571,"ECCENTRICITY":0.00080458,"INCLINATION":97.4206,"RA_OF_ASC_NODE":114.5457,"ARG_OF_PERICENTER":356.5821,"MEAN_ANOMALY":3.5354,"EPHEMERIS_TYPE":0,"CLASSIFICATION_TYPE":"U","NORAD_CAT_ID":43767,"ELEMENT_SET_NO":999,"REV_AT_EPOCH":39736,"BSTAR":0.00033979895,"MEAN_MOTION_DOT":5.714e-5,"MEAN_MOTION_DDOT":0},{"OBJECT_NAME":"COSMOS 252 DEB","OBJECT_ID":"1968-097R","EPOCH":"2026-03-09T21:14:17.625408","MEAN_MOTION":14.2586139,"ECCENTRICITY":0.04048142,"INCLINATION":62.2843,"RA_OF_ASC_NODE":299.467,"ARG_OF_PERICENTER":222.0036,"MEAN_ANOMALY":134.9322,"EPHEMERIS_TYPE":0,"CLASSIFICATION_TYPE":"U","NORAD_CAT_ID":3565,"ELEMENT_SET_NO":999,"REV_AT_EPOCH":82919,"BSTAR":0.00082009185,"MEAN_MOTION_DOT":4.523e-5,"MEAN_MOTION_DDOT":0}]
